NORAD_CAT_ID,OBJECT_NAME,OBJECT_TYPE,EPOCH,MEAN_MOTION,ECCENTRICITY,INCLINATION,RA_OF_ASC_NODE,ARG_OF_PERICENTER,MEAN_ANOMALY,BSTAR,MEAN_MOTION_DOT,MEAN_MOTION_DDOT,TLE_LINE0,TLE_LINE1,TLE_LINE2,SEMIMAJOR_AXIS,PERIOD,APOGEE,PERIGEE,DECAYED
53779.0,STARLINK-4706,PAYLOAD,2023-09-10 16:25:12,15.08845971,0.0001021,53.2165,43.8978,79.4397,280.671,0.00023125,3.395e-05,0.0,0 STARLINK-4706,1 53779U 22111G   23253.68417392  .00003395  00000-0  23125-3 0  9999,2 53779  53.2165  43.8978 0001021  79.4397 280.6710 15.08845971 55357,6917.862,95.437,540.433,539.021,0.0
53779.0,STARLINK-4706,PAYLOAD,2023-09-11 13:05:13,15.0884264,0.0001231,53.2183,40.0331,87.0138,273.0995,0.00012337,1.676e-05,0.0,0 STARLINK-4706,1 53779U 22111G   23254.54529524  .00001676  00000-0  12337-3 0  9999,2 53779  53.2183  40.0331 0001231  87.0138 273.0995 15.08842640 56295,6917.872,95.437,540.589,538.886,0.0
53779.0,STARLINK-4706,PAYLOAD,2023-09-11 16:15:59,15.08845265,0.0001243,53.2186,39.4378,91.9109,268.2025,0.00011409,1.529e-05,0.0,0 STARLINK-4706,1 53779U 22111G   23254.67777339  .00001529  00000-0  11409-3 0  9998,2 53779  53.2186  39.4378 0001243  91.9109 268.2025 15.08845265 55505,6917.864,95.437,540.589,538.869,0.0
53779.0,STARLINK-4706,PAYLOAD,2023-09-12 12:56:00,15.08839418,0.0001343,53.2192,35.575,66.7447,293.3687,3.8253e-05,3.21e-06,0.0,0 STARLINK-4706,1 53779U 22111G   23255.53889758  .00000321  00000-0  38253-4 0  9999,2 53779  53.2192  35.5750 0001343  66.7447 293.3687 15.08839418 56449,6917.882,95.438,540.676,538.818,0.0
53779.0,STARLINK-4706,PAYLOAD,2023-09-12 16:06:46,15.08843691,0.0001324,53.2183,34.9773,79.5202,280.594,5.3376e-05,5.62e-06,0.0,0 STARLINK-4706,1 53779U 22111G   23255.67137434  .00000562  00000-0  53376-4 0  9991,2 53779  53.2183  34.9773 0001324  79.5202 280.5940 15.08843691 55657,6917.869,95.437,540.65,538.818,0.0
53779.0,STARLINK-4706,PAYLOAD,2023-09-12 20:52:55,15.08856076,0.0001289,53.2186,34.0849,89.8922,270.2217,0.00027609,4.111e-05,0.0,0 STARLINK-4706,1 53779U 22111G   23255.87008757  .00004111  00000-0  27609-3 0  9991,2 53779  53.2186  34.0849 0001289  89.8922 270.2217 15.08856076 55685,6917.831,95.437,540.588,538.805,0.0
53779.0,STARLINK-4706,PAYLOAD,2023-09-13 09:36:01,15.08844207,0.0001542,53.2184,31.7069,81.0583,279.0583,0.00013604,1.878e-05,0.0,0 STARLINK-4706,1 53779U 22111G   23256.40001320  .00001878  00000-0  13604-3 0  9997,2 53779  53.2184  31.7069 0001542  81.0583 279.0583 15.08844207 55765,6917.868,95.437,540.799,538.666,0.0
53779.0,STARLINK-4706,PAYLOAD,2023-09-13 12:46:47,15.08847288,0.0001327,53.2174,31.1116,96.2123,263.902,0.00019241,2.776e-05,0.0,0 STARLINK-4706,1 53779U 22111G   23256.53249032  .00002776  00000-0  19241-3 0  9996,2 53779  53.2174  31.1116 0001327  96.2123 263.9020 15.08847288 56592,6917.858,95.437,540.641,538.805,0.0
53779.0,STARLINK-4706,PAYLOAD,2023-09-13 15:57:33,15.08853384,0.0001351,53.2172,30.5175,93.859,266.2557,0.00030656,4.596e-05,0.0,0 STARLINK-4706,1 53779U 22111G   23256.66496789  .00004596  00000-0  30656-3 0  9998,2 53779  53.2172  30.5175 0001351  93.8590 266.2557 15.08853384 55804,6917.839,95.437,540.639,538.77,0.0
53779.0,STARLINK-4706,PAYLOAD,2023-09-13 20:43:42,15.08861269,0.0001211,53.2189,29.6239,86.6344,273.4787,0.00052231,8.039e-05,0.0,0 STARLINK-4706,1 53779U 22111G   23256.86368424  .00008039  00000-0  52231-3 0  9993,2 53779  53.2189  29.6239 0001211  86.6344 273.4787 15.08861269 56643,6917.815,95.436,540.518,538.843,0.0
53779.0,STARLINK-4706,PAYLOAD,2023-09-14 01:29:52,15.08827712,0.0001405,53.2194,28.7331,79.3124,280.8027,-0.00039336,-6.541e-05,0.0,0 STARLINK-4706,1 53779U 22111G   23257.06241472 -.00006541  00000-0 -39336-3 0  9998,2 53779  53.2194  28.7331 0001405  79.3124 280.8027 15.08827712 55869,6917.918,95.438,540.755,538.811,0.0
53779.0,STARLINK-4706,PAYLOAD,2023-09-14 12:37:35,15.08821367,0.0001312,53.2187,26.652,84.9845,275.1297,-0.00035771,-5.973e-05,0.0,0 STARLINK-4706,1 53779U 22111G   23257.52610080 -.00005973  00000-0 -35771-3 0  9991,2 53779  53.2187  26.6520 0001312  84.9845 275.1297 15.08821367 56741,6917.937,95.439,540.71,538.895,0.0
53779.0,STARLINK-4706,PAYLOAD,2023-09-14 18:59:08,15.08820854,0.0001339,53.2192,25.4634,75.467,284.6471,-0.00023534,-4.029e-05,0.0,0 STARLINK-4706,1 53779U 22111G   23257.79106547 -.00004029  00000-0 -23534-3 0  9993,2 53779  53.2192  25.4634 0001339  75.4670 284.6471 15.08820854 56783,6917.939,95.439,540.73,538.878,0.0
53779.0,STARLINK-4706,PAYLOAD,2023-09-15 01:20:40,15.08828898,0.0001383,53.2197,24.2733,83.1991,276.9159,7.7346e-05,9.43e-06,0.0,0 STARLINK-4706,1 53779U 22111G   23258.05602499  .00000943  00000-0  77346-4 0  9990,2 53779  53.2197  24.2733 0001383  83.1991 276.9159 15.08828898 56015,6917.914,95.438,540.736,538.823,0.0
53779.0,STARLINK-4706,PAYLOAD,2023-09-15 12:28:22,15.08844384,0.0001289,53.2194,22.1917,80.2786,279.8352,0.00045425,6.95e-05,0.0,0 STARLINK-4706,1 53779U 22111G   23258.51970330  .00006950  00000-0  45425-3 0  9999,2 53779  53.2194  22.1917 0001289  80.2786 279.8352 15.08844384 56899,6917.867,95.437,540.624,538.84,0.0
53779.0,STARLINK-4706,PAYLOAD,2023-09-15 17:14:31,15.08857364,0.0001343,53.2192,21.2988,67.3948,292.7186,0.0011524,0.00018109,0.0,0 STARLINK-4706,1 53779U 22111G   23258.71842431  .00018109  00000-0  11524-2 0  9992,2 53779  53.2192  21.2988 0001343  67.3948 292.7186 15.08857364 56118,6917.827,95.436,540.621,538.763,0.0
53779.0,STARLINK-4706,PAYLOAD,2023-09-16 01:11:27,15.08848802,0.0001158,53.2187,19.8118,73.8117,286.3003,0.00059972,9.272e-05,0.0,0 STARLINK-4706,1 53779U 22111G   23259.04962399  .00009272  00000-0  59972-3 0  9996,2 53779  53.2187  19.8118 0001158  73.8117 286.3003 15.08848802 56163,6917.853,95.437,540.52,538.917,0.0
53779.0,STARLINK-4706,PAYLOAD,2023-09-16 13:54:32,15.08848979,0.0001358,53.2189,17.4324,70.3502,289.7637,0.00033761,5.091e-05,0.0,0 STARLINK-4706,1 53779U 22111G   23259.57954317  .00005091  00000-0  33761-3 0  9998,2 53779  53.2189  17.4324 0001358  70.3502 289.7637 15.08848979 57054,6917.853,95.437,540.657,538.778,0.0
53779.0,STARLINK-4706,PAYLOAD,2023-09-16 17:05:18,15.08854401,0.0001306,53.2189,16.8379,70.4528,289.6605,0.00061292,9.484e-05,0.0,0 STARLINK-4706,1 53779U 22111G   23259.71202189  .00009484  00000-0  61292-3 0  9997,2 53779  53.2189  16.8379 0001306  70.4528 289.6605 15.08854401 56262,6917.836,95.437,540.605,538.798,0.0
53779.0,STARLINK-4706,PAYLOAD,2023-09-17 07:23:47,15.08848305,0.0001324,53.2178,14.1642,71.2391,288.8745,0.00066086,0.00010248,0.0,0 STARLINK-4706,1 53779U 22111G   23260.30818350  .00010248  00000-0  66086-3 0  9993,2 53779  53.2178  14.1642 0001324  71.2391 288.8745 15.08848305 56353,6917.855,95.437,540.636,538.804,0.0
53779.0,STARLINK-4706,PAYLOAD,2023-09-17 12:09:56,15.08855692,0.0001185,53.2185,13.2715,71.9433,288.1688,0.001025,0.00016069,0.0,0 STARLINK-4706,1 53779U 22111G   23260.50690271  .00016069  00000-0  10250-2 0  9993,2 53779  53.2185  13.2715 0001185  71.9433 288.1688 15.08855692 57190,6917.832,95.437,540.517,538.878,0.0
53779.0,STARLINK-4706,PAYLOAD,2023-09-18 00:53:01,15.08851157,0.0001165,53.2189,10.8926,85.9298,274.1828,0.0006343,9.824e-05,0.0,0 STARLINK-4706,1 53779U 22111G   23261.03682168  .00009824  00000-0  63430-3 0  9998,2 53779  53.2189  10.8926 0001165  85.9298 274.1828 15.08851157 56465,6917.846,95.437,540.517,538.905,0.0
53779.0,STARLINK-4706,PAYLOAD,2023-09-18 07:14:34,15.08828196,9.7e-05,53.2189,9.702,97.8621,262.2481,-0.00013634,-2.456e-05,0.0,0 STARLINK-4706,1 53779U 22111G   23261.30178441 -.00002456  00000-0 -13634-3 0  9999,2 53779  53.2189   9.7020 0000970  97.8621 262.2481 15.08828196 56507,6917.916,95.438,540.453,539.11,0.0
53779.0,STARLINK-4706,PAYLOAD,2023-09-18 13:36:06,15.08837447,0.0001636,53.2189,8.5142,90.9158,269.2022,0.00037499,5.685e-05,0.0,0 STARLINK-4706,1 53779U 22111G   23261.56674642  .00005685  00000-0  37499-3 0  9991,2 53779  53.2189   8.5142 0001636  90.9158 269.2022 15.08837447 57359,6917.888,95.438,540.885,538.621,0.0
53779.0,STARLINK-4706,PAYLOAD,2023-09-19 16:37:39,15.08871915,0.0001631,53.2196,3.4598,84.2634,275.8545,0.00096983,0.00015194,0.0,0 STARLINK-4706,1 53779U 22111G   23262.69281552  .00015194  00000-0  96983-3 0  9999,2 53779  53.2196   3.4598 0001631  84.2634 275.8545 15.08871915 56716,6917.783,95.436,540.776,538.52,0.0
53779.0,STARLINK-4706,PAYLOAD,2023-09-19 18:13:01,15.0888468,0.0001602,53.219,3.1597,95.0282,265.0893,0.0013636,0.00021507,0.0,0 STARLINK-4706,1 53779U 22111G   23262.75905083  .00021507  00000-0  13636-2 0  9996,2 53779  53.2190   3.1597 0001602  95.0282 265.0893 15.08884680 56724,6917.744,95.435,540.717,538.501,0.0
53779.0,STARLINK-4706,PAYLOAD,2023-09-20 11:42:18,15.08816375,0.0001484,53.2192,359.8914,103.0008,257.115,-0.00044,-7.279e-05,0.0,0 STARLINK-4706,1 53779U 22111G   23263.48770953 -.00007279  00000-0 -44000-3 0  9995,2 53779  53.2192 359.8914 0001484 103.0008 257.1150 15.08816375 56830,6917.953,95.439,540.844,538.791,0.0
53779.0,STARLINK-4706,PAYLOAD,2023-09-21 09:57:42,15.08848849,0.0001426,53.2189,355.7281,114.7614,245.3527,0.0014405,0.00022717,0.0,0 STARLINK-4706,1 53779U 22111G   23264.41507848  .00022717  00000-0  14405-2 0  9997,2 53779  53.2189 355.7281 0001426 114.7614 245.3527 15.08848849 56979,6917.853,95.437,540.705,538.732,0.0
53779.0,STARLINK-4706,PAYLOAD,2023-09-21 13:08:28,15.0885599,0.000142,53.2186,355.1337,111.3206,248.7938,0.0014232,0.00022445,0.0,0 STARLINK-4706,1 53779U 22111G   23264.54755705  .00022445  00000-0  14232-2 0  9994,2 53779  53.2186 355.1337 0001420 111.3206 248.7938 15.08855990 57807,6917.832,95.437,540.679,538.714,0.0
53779.0,STARLINK-4706,PAYLOAD,2023-09-21 22:40:47,15.08856951,0.0001562,53.2191,353.3508,111.3253,248.7906,0.00085221,0.00013307,0.0,0 STARLINK-4706,1 53779U 22111G   23264.94499485  .00013307  00000-0  85221-3 0  9992,2 53779  53.2191 353.3508 0001562 111.3253 248.7906 15.08856951 57052,6917.829,95.436,540.774,538.613,0.0
